[
  {
    "name": "PLEIADES NEO 3",
    "line1": "1 48268U 21034A   25338.75964253 -.00000066  00000+0 -17902-5 0  9997",
    "line2": "2 48268  97.8948  51.3146 0001323  91.4402 268.6963 14.81674622248863",
    "catNr": 48268
  },
  {
    "name": "PLEIADES NEO 4",
    "line1": "1 49070U 21073E   25338.72586476 -.00000026  00000+0  33601-5 0  9995",
    "line2": "2 49070  97.8949  51.2776 0001329  96.6930 263.4434 14.81674029232571",
    "catNr": 49070
  }
]